{"type": "FeatureCollection", "features": [ {"type": "Feature", "properties": {"norad_id": 66355, "name": "STARLINK-35861", "group": "last-30-days", "lat": 38.39601309373142, "lon": -4.815079916546252, "alt_km": 378.71355406120347, "timestamp": "2025-12-03T22:42:31.474552+00:00", "meta": {"OBJECT_NAME": "STARLINK-35861", "OBJECT_ID": "2025-254H", "EPOCH": "2025-12-03T12:00:02.998944", "MEAN_MOTION": 15.63068403, "ECCENTRICITY": 0.000129, "INCLINATION": 53.1595, "RA_OF_ASC_NODE": 320.9078, "ARG_OF_PERICENTER": 61.2138, "MEAN_ANOMALY": 359.3682, "EPHEMERIS_TYPE": 0, "CLASSIFICATION_TYPE": "U", "NORAD_CAT_ID": 66355, "ELEMENT_SET_NO": 999, "REV_AT_EPOCH": 543, "BSTAR": -0.025013, "MEAN_MOTION_DOT": -0.02033791, "MEAN_MOTION_DDOT": 0}, "tle": {"line1": "1 66355U 25254H   25337.50003471 -.02033791  00000+0 -25013-1 0  9991", "line2": "2 66355  53.1595 320.9078 0001290  61.2138 359.3682 15.63068403  5431"}}, "geometry": {"type": "Point", "coordinates": [-4.815079916546252, 38.39601309373142]}}, {"type": "Feature", "properties": {"norad_id": 66356, "name": "STARLINK-35851", "group": "last-30-days", "lat": 39.61621251077139, "lon": -2.9124698745719, "alt_km": 378.56051410847704, "timestamp": "2025-12-03T22:42:31.474562+00:00", "meta": {"OBJECT_NAME": "STARLINK-35851", "OBJECT_ID": "2025-254J", "EPOCH": "2025-12-03T12:00:02.998944", "MEAN_MOTION": 15.63067409, "ECCENTRICITY": 0.0001235, "INCLINATION": 53.1595, "RA_OF_ASC_NODE": 320.9029, "ARG_OF_PERICENTER": 65.277, "MEAN_ANOMALY": 357.2219, "EPHEMERIS_TYPE": 0, "CLASSIFICATION_TYPE": "U", "NORAD_CAT_ID": 66356, "ELEMENT_SET_NO": 999, "REV_AT_EPOCH": 543, "BSTAR": -0.024981, "MEAN_MOTION_DOT": -0.02031387, "MEAN_MOTION_DDOT": 0}, "tle": {"line1": "1 66356U 25254J   25337.50003471 -.02031387  00000+0 -24981-1 0  9994", "line2": "2 66356  53.1595 320.9029 0001235  65.2770 357.2219 15.63067409  5431"}}, "geometry": {"type": "Point", "coordinates": [-2.9124698745719, 39.61621251077139]}}, {"type": "Feature", "properties": {"norad_id": 66357, "name": "STARLINK-35817", "group": "last-30-days", "lat": 40.80384513147553, "lon": -0.9414074205323163, "alt_km": 378.38268446340226, "timestamp": "2025-12-03T22:42:31.474571+00:00", "meta": {"OBJECT_NAME": "STARLINK-35817", "OBJECT_ID": "2025-254K", "EPOCH": "2025-12-03T12:00:02.998944", "MEAN_MOTION": 15.63068173, "ECCENTRICITY": 0.0001223, "INCLINATION": 53.1594, "RA_OF_ASC_NODE": 320.8992, "ARG_OF_PERICENTER": 67.4264, "MEAN_ANOMALY": 356.989, "EPHEMERIS_TYPE": 0, "CLASSIFICATION_TYPE": "U", "NORAD_CAT_ID": 66357, "ELEMENT_SET_NO": 999, "REV_AT_EPOCH": 543, "BSTAR": -0.024996, "MEAN_MOTION_DOT": -0.02032514, "MEAN_MOTION_DDOT": 0}, "tle": {"line1": "1 66357U 25254K   25337.50003471 -.02032514  00000+0 -24996-1 0  9994", "line2": "2 66357  53.1594 320.8992 0001223  67.4264 356.9890 15.63068173  5438"}}, "geometry": {"type": "Point", "coordinates": [-0.9414074205323163, 40.80384513147553]}}, {"type": "Feature", "properties": {"norad_id": 66358, "name": "STARLINK-35807", "group": "last-30-days", "lat": 41.95689633768355, "lon": 1.10038147128465, "alt_km": 378.1677738357994, "timestamp": "2025-12-03T22:42:31.474580+00:00", "meta": {"OBJECT_NAME": "STARLINK-35807", "OBJECT_ID": "2025-254L", "EPOCH": "2025-12-03T12:00:02.998944", "MEAN_MOTION": 15.6307277, "ECCENTRICITY": 0.0001279, "INCLINATION": 53.1592, "RA_OF_ASC_NODE": 320.8946, "ARG_OF_PERICENTER": 67.3125, "MEAN_ANOMALY": 359.0198, "EPHEMERIS_TYPE": 0, "CLASSIFICATION_TYPE": "U", "NORAD_CAT_ID": 66358, "ELEMENT_SET_NO": 999, "REV_AT_EPOCH": 543, "BSTAR": -0.025106, "MEAN_MOTION_DOT": -0.02040672, "MEAN_MOTION_DDOT": 0}, "tle": {"line1": "1 66358U 25254L   25337.50003471 -.02040672  00000+0 -25106-1 0  9993", "line2": "2 66358  53.1592 320.8946 0001279  67.3125 359.0198 15.63072770  5435"}}, "geometry": {"type": "Point", "coordinates": [1.10038147128465, 41.95689633768355]}}, {"type": "Feature", "properties": {"norad_id": 66359, "name": "STARLINK-35805", "group": "last-30-days", "lat": 43.072662949024945, "lon": 3.21738756788117, "alt_km": 377.9995359549994, "timestamp": "2025-12-03T22:42:31.474590+00:00", "meta": {"OBJECT_NAME": "STARLINK-35805", "OBJECT_ID": "2025-254M", "EPOCH": "2025-12-03T12:00:02.998944", "MEAN_MOTION": 15.63074008, "ECCENTRICITY": 0.0001266, "INCLINATION": 53.1594, "RA_OF_ASC_NODE": 320.8911, "ARG_OF_PERICENTER": 67.0161, "MEAN_ANOMALY": 1.233, "EPHEMERIS_TYPE": 0, "CLASSIFICATION_TYPE": "U", "NORAD_CAT_ID": 66359, "ELEMENT_SET_NO": 999, "REV_AT_EPOCH": 540, "BSTAR": -0.025133, "MEAN_MOTION_DOT": -0.02042698, "MEAN_MOTION_DDOT": 0}, "tle": {"line1": "1 66359U 25254M   25337.50003471 -.02042698  00000+0 -25133-1 0  9994", "line2": "2 66359  53.1594 320.8911 0001266  67.0161   1.2330 15.63074008  5400"}}, "geometry": {"type": "Point", "coordinates": [3.21738756788117, 43.072662949024945]}}, {"type": "Feature", "properties": {"norad_id": 66360, "name": "STARLINK-35823", "group": "last-30-days", "lat": 45.17854157748327, "lon": 7.683282312324904, "alt_km": 377.70326392573406, "timestamp": "2025-12-03T22:42:31.474599+00:00", "meta": {"OBJECT_NAME": "STARLINK-35823", "OBJECT_ID": "2025-254N", "EPOCH": "2025-12-03T12:00:02.998944", "MEAN_MOTION": 15.63069953, "ECCENTRICITY": 0.0001208, "INCLINATION": 53.1592, "RA_OF_ASC_NODE": 320.8823, "ARG_OF_PERICENTER": 68.1853, "MEAN_ANOMALY": 3.8979, "EPHEMERIS_TYPE": 0, "CLASSIFICATION_TYPE": "U", "NORAD_CAT_ID": 66360, "ELEMENT_SET_NO": 999, "REV_AT_EPOCH": 543, "BSTAR": -0.025045, "MEAN_MOTION_DOT": -0.02036115, "MEAN_MOTION_DDOT": 0}, "tle": {"line1": "1 66360U 25254N   25337.50003471 -.02036115  00000+0 -25045-1 0  9995", "line2": "2 66360  53.1592 320.8823 0001208  68.1853   3.8979 15.63069953  5431"}}, "geometry": {"type": "Point", "coordinates": [7.683282312324904, 45.17854157748327]}}, {"type": "Feature", "properties": {"norad_id": 66361, "name": "STARLINK-35813", "group": "last-30-days", "lat": 44.14711756434448, "lon": 5.410355409729952, "alt_km": 377.82994301695817, "timestamp": "2025-12-03T22:42:31.474608+00:00", "meta": {"OBJECT_NAME": "STARLINK-35813", "OBJECT_ID": "2025-254P", "EPOCH": "2025-12-03T12:00:02.998944", "MEAN_MOTION": 15.63077106, "ECCENTRICITY": 0.0001288, "INCLINATION": 53.1593, "RA_OF_ASC_NODE": 320.8873, "ARG_OF_PERICENTER": 70.785, "MEAN_ANOMALY": 359.3803, "EPHEMERIS_TYPE": 0, "CLASSIFICATION_TYPE": "U", "NORAD_CAT_ID": 66361, "ELEMENT_SET_NO": 999, "REV_AT_EPOCH": 543, "BSTAR": -0.025198, "MEAN_MOTION_DOT": -0.02047575, "MEAN_MOTION_DDOT": 0}, "tle": {"line1": "1 66361U 25254P   25337.50003471 -.02047575  00000+0 -25198-1 0  9997", "line2": "2 66361  53.1593 320.8873 0001288  70.7850 359.3803 15.63077106  5436"}}, "geometry": {"type": "Point", "coordinates": [5.410355409729952, 44.14711756434448]}}, {"type": "Feature", "properties": {"norad_id": 66362, "name": "STARLINK-35822", "group": "last-30-days", "lat": 47.09653528742571, "lon": 12.478536110450124, "alt_km": 377.27821806946486, "timestamp": "2025-12-03T22:42:31.474617+00:00", "meta": {"OBJECT_NAME": "STARLINK-35822", "OBJECT_ID": "2025-254Q", "EPOCH": "2025-12-03T12:00:02.998944", "MEAN_MOTION": 15.6306742, "ECCENTRICITY": 0.0001387, "INCLINATION": 53.1588, "RA_OF_ASC_NODE": 320.8751, "ARG_OF_PERICENTER": 67.2242, "MEAN_ANOMALY": 8.6934, "EPHEMERIS_TYPE": 0, "CLASSIFICATION_TYPE": "U", "NORAD_CAT_ID": 66362, "ELEMENT_SET_NO": 999, "REV_AT_EPOCH": 543, "BSTAR": -0.025004, "MEAN_MOTION_DOT": -0.02033159, "MEAN_MOTION_DDOT": 0}, "tle": {"line1": "1 66362U 25254Q   25337.50003471 -.02033159  00000+0 -25004-1 0  9997", "line2": "2 66362  53.1588 320.8751 0001387  67.2242   8.6934 15.63067420  5439"}}, "geometry": {"type": "Point", "coordinates": [12.478536110450124, 47.09653528742571]}}, {"type": "Feature", "properties": {"norad_id": 66363, "name": "STARLINK-35806", "group": "last-30-days", "lat": 46.163016093562945, "lon": 10.039490617799782, "alt_km": 377.4509147113595, "timestamp": "2025-12-03T22:42:31.474626+00:00", "meta": {"OBJECT_NAME": "STARLINK-35806", "OBJECT_ID": "2025-254R", "EPOCH": "2025-12-03T12:00:02.998944", "MEAN_MOTION": 15.63069742, "ECCENTRICITY": 0.0001344, "INCLINATION": 53.1592, "RA_OF_ASC_NODE": 320.8788, "ARG_OF_PERICENTER": 66.2578, "MEAN_ANOMALY": 7.7422, "EPHEMERIS_TYPE": 0, "CLASSIFICATION_TYPE": "U", "NORAD_CAT_ID": 66363, "ELEMENT_SET_NO": 999, "REV_AT_EPOCH": 540, "BSTAR": -0.025041, "MEAN_MOTION_DOT": -0.02035922, "MEAN_MOTION_DDOT": 0}, "tle": {"line1": "1 66363U 25254R   25337.50003471 -.02035922  00000+0 -25041-1 0  9999", "line2": "2 66363  53.1592 320.8788 0001344  66.2578   7.7422 15.63069742  5407"}}, "geometry": {"type": "Point", "coordinates": [10.039490617799782, 46.163016093562945]}}, {"type": "Feature", "properties": {"norad_id": 66364, "name": "STARLINK-35797", "group": "last-30-days", "lat": 47.977233094682994, "lon": 15.00257337840555, "alt_km": 377.23256655426576, "timestamp": "2025-12-03T22:42:31.474635+00:00", "meta": {"OBJECT_NAME": "STARLINK-35797", "OBJECT_ID": "2025-254S", "EPOCH": "2025-12-03T12:00:02.998944", "MEAN_MOTION": 15.6307433, "ECCENTRICITY": 0.0001283, "INCLINATION": 53.159, "RA_OF_ASC_NODE": 320.8708, "ARG_OF_PERICENTER": 69.1861, "MEAN_ANOMALY": 8.6463, "EPHEMERIS_TYPE": 0, "CLASSIFICATION_TYPE": "U", "NORAD_CAT_ID": 66364, "ELEMENT_SET_NO": 999, "REV_AT_EPOCH": 543, "BSTAR": -0.02513, "MEAN_MOTION_DOT": -0.02042525, "MEAN_MOTION_DDOT": 0}, "tle": {"line1": "1 66364U 25254S   25337.50003471 -.02042525  00000+0 -25130-1 0  9996", "line2": "2 66364  53.1590 320.8708 0001283  69.1861   8.6463 15.63074330  5434"}}, "geometry": {"type": "Point", "coordinates": [15.00257337840555, 47.977233094682994]}}]}